STARLINK-32718          
1 62496U 25003K   26068.02480542  .00027552  00000+0  10064-2 0  9997
2 62496  43.0012 292.4065 0001119 295.8828  64.1909 15.27601085 66456
FLOCK 4G-2              
1 62661U 25009BE  26068.66207492  .00013752  00000+0  51068-3 0  9995
2 62661  97.4044 151.2221 0003181 329.2677  30.8376 15.27675260121321
